BEIDOU 3 (C01)          
1 36287U 10001A   22092.68582633 -.00000290  00000+0  00000+0 0  9994
2 36287   1.9505  48.8944 0003633  17.2033 152.1240  1.00267069 44752
BEIDOU 5 (C06)          
1 36828U 10036A   22092.19288753 -.00000128  00000+0  00000+0 0  9995
2 36828  54.1905 176.9285 0027746 185.0477   6.4932  1.00268261 42814
BEIDOU 6 (C04)          
1 37210U 10057A   22092.79563484 -.00000121  00000+0  00000+0 0  9990
2 37210   0.7370  38.6545 0002487 201.7232  37.1372  1.00271519 41870
BEIDOU 7 (C07)          
1 37256U 10068A   22092.25834756 -.00000197  00000+0  00000+0 0  9999
2 37256  50.3468 290.5543 0018374 182.3872 279.3485  1.00273823 41383
BEIDOU 8 (C08)          
1 37384U 11013A   22092.82295238 -.00000186  00000+0  00000+0 0  9999
2 37384  60.1876  55.0044 0018664 194.9152 346.3120  1.00275731 40266
BEIDOU 9 (C09)          
1 37763U 11038A   22092.93229344 -.00000065  00000+0  00000+0 0  9990
2 37763  54.4720 179.4025 0094912 226.7410 212.5996  1.00293692 39249
BEIDOU 10 (C10)         
1 37948U 11073A   22092.36047534 -.00000148  00000+0  00000+0 0  9992
2 37948  50.4618 290.1862 0077161 217.4998 268.5140  1.00269830 37990
BEIDOU 11 (C05)         
1 38091U 12008A   22091.95868578  .00000047  00000+0  00000+0 0  9991
2 38091   1.3966  65.3056 0014811 322.6154 206.1748  1.00269059 37067
BEIDOU 12 (C11)         
1 38250U 12018A   22091.59505362 -.00000110  00000+0  00000+0 0  9990
2 38250  56.7138 356.0985 0021923 257.8573 262.5673  1.86234421 67656
BEIDOU 13 (C12)         
1 38251U 12018B   22092.14035671 -.00000110  00000+0  00000+0 0  9994
2 38251  56.6319 355.4100 0013053 265.1099 305.1694  1.86234257 67664
BEIDOU 15 (C14)         
1 38775U 12050B   22092.60257537  .00000024  00000+0  00000+0 0  9992
2 38775  55.3548 114.2369 0014914 318.3514  38.3966  1.86231319 65046
BEIDOU 16 (C02)         
1 38953U 12059A   22092.10044319 -.00000185  00000+0  00000+0 0  9995
2 38953   1.8006  84.5172 0013156 291.5624 294.5607  1.00270737 34633
BEIDOU 17 (C31)         
1 40549U 15019A   22092.36255288 -.00000155  00000+0  00000+0 0  9992
2 40549  52.0149 313.6368 0035545 188.6113 272.8179  1.00258628 25673
BEIDOU 18 (C57)         
1 40748U 15037A   22092.27762523 -.00000111  00000+0  00000+0 0  9990
2 40748  55.8866 354.3184 0005657  10.8772 200.9645  1.86233244 45490
BEIDOU 19 (C58)         
1 40749U 15037B   22092.82054036 -.00000111  00000+0  00000+0 0  9995
2 40749  55.8898 354.2905 0006575 335.3667  15.3151  1.86232182 45494
BEIDOU 20 (C18)         
1 40938U 15053A   22092.47063078 -.00000131  00000+0  00000+0 0  9992
2 40938  51.6183 276.7394 0044512 192.3936 346.3624  1.00263759 23935
BEIDOU IGSO-6 (C13)     
1 41434U 16021A   22092.61887671 -.00000143  00000+0  00000+0 0  9992
2 41434  57.9929  53.6167 0043181 220.0071 232.6216  1.00257411 22070
BEIDOU-2 G7 (C03)       
1 41586U 16037A   22092.84439012 -.00000362  00000+0  00000+0 0  9997
2 41586   1.8105  68.6132 0009126 359.4348 177.6173  1.00269556 21370
BEIDOU-3 M1 (C19)       
1 43001U 17069A   22091.58007610  .00000035  00000+0  00000+0 0  9998
2 43001  55.5083 114.2610 0012134 289.3594 258.0479  1.86231589 29966
BEIDOU-3 M2 (C20)       
1 43002U 17069B   22092.30653148  .00000027  00000+0  00000+0 0  9994
2 43002  55.5084 114.2733 0010014 305.5620  52.0292  1.86231378 29961
BEIDOU-3 M3 (C27)       
1 43107U 18003A   22092.31354907 -.00000113  00000+0  00000+0 0  9998
2 43107  55.3362 355.2685 0005527  42.2775 126.0592  1.86232444 28730
BEIDOU-3 M4 (C28)       
1 43108U 18003B   22092.26968627 -.00000113  00000+0  00000+0 0  9993
2 43108  55.3286 355.2583 0002851 278.6564 264.5909  1.86230900 28736
BEIDOU-3 M5 (C21)       
1 43207U 18018A   22092.44220847  .00000026  00000+0  00000+0 0  9996
2 43207  55.4679 114.3492 0007114 321.1518  38.8534  1.86231390 28129
BEIDOU-3 M6 (C22)       
1 43208U 18018B   22091.43494559  .00000036  00000+0  00000+0 0  9999
2 43208  55.4668 114.3873 0010136 296.7256  63.2324  1.86231457 28106
BEIDOU-3 M7 (C29)       
1 43245U 18029A   22092.46664819 -.00000111  00000+0  00000+0 0  9999
2 43245  55.2533 353.0366 0001442   2.0001 179.3516  1.86232526 27278
BEIDOU-3 M8 (C30)       
1 43246U 18029B   22092.38906723 -.00000111  00000+0  10000-3 0  9999
2 43246  55.2500 353.0688 0005332   0.7891 175.0119  1.86232514 27262
BEIDOU IGSO-7 (C16)     
1 43539U 18057A   22092.77403976 -.00000125  00000+0  00000+0 0  9990
2 43539  55.0733 176.3767 0046895 224.9118 179.8023  1.00281156 13755
BEIDOU-3 M9 (C23)       
1 43581U 18062A   22091.74167486 -.00000024  00000+0  00000+0 0  9990
2 43581  54.3009 234.7094 0001787 306.5915   5.9754  1.86231836 24997
BEIDOU-3 M10 (C24)      
1 43582U 18062B   22092.72797564 -.00000013  00000+0  00000+0 0  9994
2 43582  54.3009 234.6650 0005725  22.8711 322.6834  1.86232029 25010
BEIDOU-3 M11 (C25)      
1 43602U 18067A   22092.15416956 -.00000019  00000+0  00000+0 0  9998
2 43602  54.3816 233.2927 0007354  14.5838 347.7916  1.86231508 24502
BEIDOU-3 M12 (C26)      
1 43603U 18067B   22092.86203041 -.00000011  00000+0  00000+0 0  9998
2 43603  54.3783 233.2354 0004347   8.4480  18.9078  1.86231501 24536
BEIDOU-3 M13 (C32)      
1 43622U 18072A   22090.89286889  .00000040  00000+0  00000+0 0  9998
2 43622  55.4331 113.9589 0008654 283.8403 252.7886  1.86231538 24008
BEIDOU-3 M14 (C33)      
1 43623U 18072B   22092.81597837  .00000022  00000+0  00000+0 0  9991
2 43623  55.4361 113.8865 0006509 301.9927 174.2243  1.86231549 24049
BEIDOU-3 M15 (C34)      
1 43647U 18078A   22092.54007692 -.00000112  00000+0  10000-3 0  9994
2 43647  55.1471 353.1984 0007753   3.9104 182.7826  1.86232533 23542
BEIDOU-3 M16 (C35)      
1 43648U 18078B   22091.66276990 -.00000111  00000+0  00000+0 0  9990
2 43648  55.1440 353.2355 0005747   9.5836 216.8592  1.86232203 23540
BEIDOU-3 G1 (C59)       
1 43683U 18085A   22092.18338765 -.00000289  00000+0  00000+0 0  9990
2 43683   0.8421 179.5661 0002636 322.6417 254.3341  1.00269053 12638
BEIDOU-3 M17 (C36)      
1 43706U 18093A   22092.01374056 -.00000021  00000+0  00000+0 0  9994
2 43706  54.3824 234.5798 0007724 276.4826  83.3725  1.86231965 22891
BEIDOU-3 M18 (C37)      
1 43707U 18093B   22092.36739953 -.00000017  00000+0  00000+0 0  9999
2 43707  54.3834 234.5583 0006623 313.1738  14.9427  1.86232094 22908
BEIDOU-3 IGSO-1 (C38)   
1 44204U 19023A   22092.61510125 -.00000217  00000+0  00000+0 0  9994
2 44204  56.4497  53.7834 0020056 205.4565 272.3323  1.00280647 10956
BEIDOU-2 G8             
1 44231U 19027A   22091.50950740 -.00000263  00000+0  00000+0 0  9997
2 44231   0.6804  71.8577 0004338 131.1356 314.6245  1.00266029 10650
BEIDOU-3 IGSO-2 (C39)   
1 44337U 19035A   22091.85237606 -.00000132  00000+0  00000+0 0  9995
2 44337  55.1129 172.4059 0022950 193.3302 250.4679  1.00276496 10282
BEIDOU-3 M23 (C45)      
1 44542U 19061A   22091.94928718 -.00000021  00000+0  00000+0 0  9990
2 44542  54.6088 234.7091 0007617 348.5457  11.3796  1.86231230 17163
BEIDOU-3 M24 (C46)      
1 44543U 19061B   22092.08762212 -.00000020  00000+0  00000+0 0  9991
2 44543  54.6079 234.6734 0004839 348.8333  15.0438  1.86231624 17167
BEIDOU-3 IGSO-3         
1 44709U 19073A   22091.46184197 -.00000167  00000+0  00000+0 0  9991
2 44709  57.3895 297.1791 0020592 172.5347   5.8291  1.00279517  9035
BEIDOU-3 M21            
1 44793U 19078A   22092.48810600 -.00000112  00000+0  10000-3 0  9992
2 44793  54.9962 353.2326 0007600   6.4213  99.4527  1.86232213 16031
BEIDOU-3 M22            
1 44794U 19078B   22090.57896529 -.00000110  00000+0  00000+0 0  9998
2 44794  54.9712 353.2908 0005489   2.3513 175.0495  1.86232681 15990
BEIDOU-3 M19            
1 44864U 19090A   22092.18061865  .00000028  00000+0  00000+0 0  9993
2 44864  55.3686 114.1311 0018651 269.7223  96.0191  1.86231844 15611
BEIDOU-3 M20            
1 44865U 19090B   22091.76716005  .00000032  00000+0  00000+0 0  9995
2 44865  55.3705 114.1764 0017014 282.9559 255.4599  1.86231789 15573
BEIDOU-3 G2             
1 45344U 20017A   22092.81737043 -.00000152  00000+0  00000+0 0  9995
2 45344   2.1220 348.3814 0003068  80.9097 136.1091  1.00272729  7862
BEIDOU-3 G3             
1 45807U 20040A   22092.03407020 -.00000367  00000+0  00000+0 0  9996
2 45807   1.6171 301.4057 0007189 345.1510  26.6051  1.00269777  6674
